[{"OBJECT_NAME":"STARLINK-35487","OBJECT_ID":"2025-245AE","EPOCH":"2026-03-09T20:39:03.240288","MEAN_MOTION":15.30257817,"ECCENTRICITY":0.00019659,"INCLINATION":53.1584,"RA_OF_ASC_NODE":283.0237,"ARG_OF_PERICENTER":155.3619,"MEAN_ANOMALY":204.7476,"EPHEMERIS_TYPE":0,"CLASSIFICATION_TYPE":"U","NORAD_CAT_ID":66262,"ELEMENT_SET_NO":999,"REV_AT_EPOCH":2123,"BSTAR":0.0014649593,"MEAN_MOTION_DOT":0.00043361,"MEAN_MOTION_DDOT":0},{"OBJECT_NAME":"CZ-2C DEB","OBJECT_ID":"2018-056F","EPOCH":"2026-03-09T10:57:26.102304","MEAN_MOTION":15.27739248,"ECCENTRICITY":0.00119172,"INCLINATION":98.1188,"RA_OF_ASC_NODE":250.032,"ARG_OF_PERICENTER":4.6998,"MEAN_ANOMALY":355.4349,"EPHEMERIS_TYPE":0,"CLASSIFICATION_TYPE":"U","NORAD_CAT_ID":43534,"ELEMENT_SET_NO":999,"REV_AT_EPOCH":41855,"BSTAR":0.00085537155,"MEAN_MOTION_DOT":0.00023193,"MEAN_MOTION_DDOT":0}]
